[{"OBJECT_NAME":"STARLINK-30858","OBJECT_ID":"2023-177H","EPOCH":"2026-03-09T22:00:01.999584","MEAN_MOTION":15.26719835,"ECCENTRICITY":0.00011136,"INCLINATION":43.0008,"RA_OF_ASC_NODE":348.945,"ARG_OF_PERICENTER":244.8707,"MEAN_ANOMALY":221.2979,"EPHEMERIS_TYPE":0,"CLASSIFICATION_TYPE":"U","NORAD_CAT_ID":58358,"ELEMENT_SET_NO":999,"REV_AT_EPOCH":573,"BSTAR":-0.00019841655,"MEAN_MOTION_DOT":-5.575e-5,"MEAN_MOTION_DDOT":0},{"OBJECT_NAME":"CZ-4C R\/B","OBJECT_ID":"2022-039B","EPOCH":"2026-03-09T15:51:32.485824","MEAN_MOTION":15.03008334,"ECCENTRICITY":0.0113659,"INCLINATION":98.2525,"RA_OF_ASC_NODE":105.9247,"ARG_OF_PERICENTER":45.8852,"MEAN_ANOMALY":315.1654,"EPHEMERIS_TYPE":0,"CLASSIFICATION_TYPE":"U","NORAD_CAT_ID":52258,"ELEMENT_SET_NO":999,"REV_AT_EPOCH":21291,"BSTAR":0.00022979194,"MEAN_MOTION_DOT":3.483e-5,"MEAN_MOTION_DDOT":0}]
